{
    "links": {
        "self": "http://www.neowsapp.com/rest/v1/neo/3825561?api_key=iIulBulltgU6a56xZRHN4H3l9WmuAYTsLGpBGhQ2"
    },
    "id": "3825561",
    "neo_reference_id": "3825561",
    "name": "(2018 NU)",
    "designation": "2018 NU",
    "nasa_jpl_url": "http://ssd.jpl.nasa.gov/sbdb.cgi?sstr=3825561",
    "absolute_magnitude_h": 25.7,
    "estimated_diameter": {
        "kilometers": {
            "estimated_diameter_min": 0.0192555078,
            "estimated_diameter_max": 0.0430566244
        },
        "meters": {
            "estimated_diameter_min": 19.2555078188,
            "estimated_diameter_max": 43.0566244241
        },
        "miles": {
            "estimated_diameter_min": 0.0119648141,
            "estimated_diameter_max": 0.0267541378
        },
        "feet": {
            "estimated_diameter_min": 63.1742402722,
            "estimated_diameter_max": 141.2618956756
        }
    },
    "is_potentially_hazardous_asteroid": false,
    "close_approach_data": [
        {
            "close_approach_date": "2018-07-06",
            "close_approach_date_full": "2018-Jul-06 18:40",
            "epoch_date_close_approach": 1530902400000,
            "relative_velocity": {
                "kilometers_per_second": "9.7561122695",
                "kilometers_per_hour": "35122.004170313",
                "miles_per_hour": "21823.4475357148"
            },
            "miss_distance": {
                "astronomical": "0.0062072514",
                "lunar": "2.4146207946",
                "kilometers": "928591.587994518",
                "miles": "577000.0569316284"
            },
            "orbiting_body": "Earth"
        },
        {
            "close_approach_date": "2018-07-06",
            "close_approach_date_full": "2018-Jul-06 23:12",
            "epoch_date_close_approach": 1530918720000,
            "relative_velocity": {
                "kilometers_per_second": "9.6038850482",
                "kilometers_per_hour": "34573.9861736419",
                "miles_per_hour": "21482.9304643943"
            },
            "miss_distance": {
                "astronomical": "0.0083487823",
                "lunar": "3.2476763147",
                "kilometers": "1248960.049173701",
                "miles": "776067.7878150338"
            },
            "orbiting_body": "Moon"
        }
    ],
    "orbital_data": {
        "orbit_id": "2",
        "orbit_determination_date": "2018-07-09 06:27:55",
        "first_observation_date": "2018-07-07",
        "last_observation_date": "2018-07-08",
        "data_arc_in_days": 1,
        "observations_used": 27,
        "orbit_uncertainty": "7",
        "minimum_orbit_intersection": ".0034548",
        "jupiter_tisserand_invariant": "4.000",
        "epoch_osculation": "2459000.5",
        "eccentricity": ".4252415625205652",
        "semi_major_axis": "1.746970519622858",
        "inclination": "13.00061852057399",
        "ascending_node_longitude": "283.2203005089434",
        "orbital_period": "843.386783987838",
        "perihelion_distance": "1.00408604618107",
        "perihelion_argument": "18.74817687888272",
        "aphelion_distance": "2.489854993064646",
        "perihelion_time": "2459165.208613346656",
        "mean_anomaly": "289.6940597949288",
        "mean_motion": ".426850416481261",
        "equinox": "J2000",
        "orbit_class": {
            "orbit_class_type": "APO",
            "orbit_class_description": "Near-Earth asteroid orbits which cross the Earth’s orbit similar to that of 1862 Apollo",
            "orbit_class_range": "a (semi-major axis) > 1.0 AU; q (perihelion) < 1.017 AU"
        }
    },
    "is_sentry_object": false
}